[{"OBJECT_NAME":"OBJECT D","OBJECT_ID":"2025-108D","EPOCH":"2026-03-09T23:55:58.918944","MEAN_MOTION":15.17741465,"ECCENTRICITY":0.00119931,"INCLINATION":97.4751,"RA_OF_ASC_NODE":145.8386,"ARG_OF_PERICENTER":357.4422,"MEAN_ANOMALY":2.6748,"EPHEMERIS_TYPE":0,"CLASSIFICATION_TYPE":"U","NORAD_CAT_ID":64090,"ELEMENT_SET_NO":999,"REV_AT_EPOCH":4431,"BSTAR":0.00035350679,"MEAN_MOTION_DOT":7.081e-5,"MEAN_MOTION_DDOT":0},{"OBJECT_NAME":"DELTA 1 DEB","OBJECT_ID":"1977-065DC","EPOCH":"2026-03-08T18:53:52.858176","MEAN_MOTION":13.67610044,"ECCENTRICITY":0.06541303,"INCLINATION":29.1038,"RA_OF_ASC_NODE":273.1071,"ARG_OF_PERICENTER":41.1554,"MEAN_ANOMALY":323.6515,"EPHEMERIS_TYPE":0,"CLASSIFICATION_TYPE":"U","NORAD_CAT_ID":10306,"ELEMENT_SET_NO":999,"REV_AT_EPOCH":37728,"BSTAR":0.00097809201,"MEAN_MOTION_DOT":3.989e-5,"MEAN_MOTION_DDOT":0}]
